NORAD_CAT_ID,OBJECT_NAME,OBJECT_TYPE,EPOCH,MEAN_MOTION,ECCENTRICITY,INCLINATION,RA_OF_ASC_NODE,ARG_OF_PERICENTER,MEAN_ANOMALY,BSTAR,MEAN_MOTION_DOT,MEAN_MOTION_DDOT,TLE_LINE0,TLE_LINE1,TLE_LINE2,SEMIMAJOR_AXIS,PERIOD,APOGEE,PERIGEE,DECAYED
52088.0,STARLINK-3537,PAYLOAD,2022-10-21 12:53:48,15.64530881,0.000186,53.1994,142.4562,122.7979,237.3216,-0.0045848999999999,-0.00427988,0.0,0 STARLINK-3537,1 52088U 22029A   22294.53736905 -.00427988  00000-0 -45849-2 0  9997,2 52088  53.1994 142.4562 0001860 122.7979 237.3216 15.64530881 35465,6752.725,92.04,375.846,373.334,0.0
52088.0,STARLINK-3537,PAYLOAD,2022-10-22 04:14:39,15.634043300000002,0.0003116,53.1994,139.3398,154.5163,205.6007,-0.004459,-0.00399581,0.0,0 STARLINK-3537,1 52088U 22029A   22295.17684829 -.00399581  00000-0 -44590-2 0  9994,2 52088  53.1994 139.3398 0003116 154.5163 205.6007 15.63404330 35566,6755.969,92.107,379.939,375.729,0.0
52088.0,STARLINK-3537,PAYLOAD,2022-10-22 07:18:58,15.63109483,0.0003568,53.1994,138.7174,147.6008,212.5227,-0.004689,-0.00414619,0.0,0 STARLINK-3537,1 52088U 22029A   22295.30484134 -.00414619  00000-0 -46890-2 0  9991,2 52088  53.1994 138.7174 0003568 147.6008 212.5227 15.63109483 35587,6756.818,92.124,381.094,376.273,0.0
52088.0,STARLINK-3537,PAYLOAD,2022-10-22 13:27:40,15.62529896,0.0003031,53.1994,137.4726,158.4528,201.6616,-0.0046781,-0.0040476999999999,0.0,0 STARLINK-3537,1 52088U 22029A   22295.56088110 -.00404770  00000-0 -46781-2 0  9999,2 52088  53.1994 137.4726 0003031 158.4528 201.6616 15.62529896 35627,6758.489000000001,92.158,382.403,378.306,0.0
52088.0,STARLINK-3537,PAYLOAD,2022-10-22 16:31:53,15.62480232,0.0003443,53.1997,136.8495,160.0981,200.0169,-0.0043053999999999,-0.00373302,0.0,0 STARLINK-3537,1 52088U 22029A   22295.68881224 -.00373302  00000-0 -43054-2 0  9995,2 52088  53.1997 136.8495 0003443 160.0981 200.0169 15.62480232 35643,6758.632,92.161,382.824,378.17,0.0
52088.0,STARLINK-3537,PAYLOAD,2022-10-22 21:08:40,15.61824707,0.0003203,53.1992,135.9179,48.4942,311.6347,-0.0054481,-0.00455715,0.0,0 STARLINK-3537,1 52088U 22029A   22295.88102183 -.00455715  00000-0 -54481-2 0  9992,2 52088  53.1992 135.9179 0003203  48.4942 311.6347 15.61824707 35675,6760.523,92.2,384.554,380.223,0.0
52088.0,STARLINK-3537,PAYLOAD,2022-10-23 03:17:26,15.61492431,0.0004032,53.1984,134.6763,169.7299,190.3799,-0.0051558,-0.00427337,0.0,0 STARLINK-3537,1 52088U 22029A   22296.13711638 -.00427337  00000-0 -51558-2 0  9993,2 52088  53.1984 134.6763 0004032 169.7299 190.3799 15.61492431 35717,6761.482,92.219,386.074,380.621,0.0
52088.0,STARLINK-3537,PAYLOAD,2022-10-23 06:22:02,15.61099339,0.000134,53.1985,134.0684,180.9228,179.1784,-0.005638,-0.00458132,0.0,0 STARLINK-3537,1 52088U 22029A   22296.26530934 -.00458132  00000-0 -56380-2 0  9990,2 52088  53.1985 134.0684 0001340 180.9228 179.1784 15.61099339 35731,6762.6169999999975,92.243,385.389,383.576,0.0
52088.0,STARLINK-3537,PAYLOAD,2022-10-23 12:31:05,15.60684799,7.41e-05,53.1987,132.8266,2.9889,357.11300000000006,-0.0051941,-0.0041741999999999,0.0,0 STARLINK-3537,1 52088U 22029A   22296.52158861 -.00417420  00000-0 -51941-2 0  9997,2 52088  53.1987 132.8266 0000741   2.9889 357.1130 15.60684799 35771,6763.815,92.267,386.181,385.179,0.0
52088.0,STARLINK-3537,PAYLOAD,2022-10-23 18:40:13,15.60279327,0.0001594,53.1987,131.585,84.9279,275.1917,-0.0050866,-0.00403225,0.0,0 STARLINK-3537,1 52088U 22029A   22296.77793317 -.00403225  00000-0 -50866-2 0  9998,2 52088  53.1987 131.5850 0001594  84.9279 275.1917 15.60279327 35810,6764.986999999999,92.291,387.93,385.773,0.0
52088.0,STARLINK-3537,PAYLOAD,2022-10-23 20:12:41,15.59907258,0.0002939,53.1986,131.2784,76.4417,283.6924,-0.0061673,-0.00477657,0.0,0 STARLINK-3537,1 52088U 22029A   22296.84215082 -.00477657  00000-0 -61673-2 0  9992,2 52088  53.1986 131.2784 0002939  76.4417 283.6924 15.59907258 35828,6766.062,92.313,389.916,385.939,0.0
52088.0,STARLINK-3537,PAYLOAD,2022-10-24 02:21:51,15.59699556,0.0002369,53.1988,130.0347,151.5567,208.5576,-0.0049098,-0.00381739,0.0,0 STARLINK-3537,1 52088U 22029A   22297.09851482 -.00381739  00000-0 -49098-2 0  9992,2 52088  53.1988 130.0347 0002369 151.5567 208.5576 15.59699556 35862,6766.663000000001,92.325,390.131,386.925,0.0
52088.0,STARLINK-3537,PAYLOAD,2022-10-24 11:36:18,15.58665915,0.000182,53.1987,128.174,141.5304,218.5839,-0.0054741999999999,-0.00407784,0.0,0 STARLINK-3537,1 52088U 22029A   22297.48354819 -.00407784  00000-0 -54742-2 0  9998,2 52088  53.1987 128.1740 0001820 141.5304 218.5839 15.58665915 35926,6769.654,92.387,392.751,390.287,0.0
52088.0,STARLINK-3537,PAYLOAD,2022-10-24 19:18:09,15.58322809,0.0001783,53.1996,126.622,201.7159,158.3779,-0.005386,-0.00396583,0.0,0 STARLINK-3537,1 52088U 22029A   22297.80428203 -.00396583  00000-0 -53860-2 0  9997,2 52088  53.1996 126.6220 0001783 201.7159 158.3779 15.58322809 35978,6770.648,92.407,393.72,391.306,0.0
52088.0,STARLINK-3537,PAYLOAD,2022-10-24 23:56:13,15.5820999,8.82e-05,53.1995,125.6959,55.3305,304.7791,-0.0042178999999999,-0.00312524,0.0,0 STARLINK-3537,1 52088U 22029A   22297.99737992 -.00312524  00000-0 -42179-2 0  9999,2 52088  53.1995 125.6959 0000882  55.3305 304.7791 15.58209990 36001,6770.975,92.414,393.437,392.242,0.0
52088.0,STARLINK-3537,PAYLOAD,2022-10-25 10:43:41,15.57212744,0.0002838,53.1995,123.5291,149.4262,210.6917,-0.0040823,-0.00292196,0.0,0 STARLINK-3537,1 52088U 22029A   22298.44701235 -.00292196  00000-0 -40823-2 0  9997,2 52088  53.1995 123.5291 0002838 149.4262 210.6917 15.57212744 36079,6773.865,92.473,397.652,393.8080000000001,0.0
52088.0,STARLINK-3537,PAYLOAD,2022-10-25 12:16:03,15.57249444,0.0001885,53.2004,123.2249,48.8382,311.2794,-0.003953,-0.00283592,0.0,0 STARLINK-3537,1 52088U 22029A   22298.51114990 -.00283592  00000-0 -39530-2 0  9994,2 52088  53.2004 123.2249 0001885  48.8382 311.2794 15.57249444 36086,6773.759,92.471,396.9,394.347,0.0
52088.0,STARLINK-3537,PAYLOAD,2022-10-25 15:21:09,15.56978139,0.0003012,53.2006,122.6079,115.3934,244.7391,-0.0042403999999999,-0.00300544,0.0,0 STARLINK-3537,1 52088U 22029A   22298.63969351 -.00300544  00000-0 -42404-2 0  9997,2 52088  53.2006 122.6079 0003012 115.3934 244.7391 15.56978139 36104,6774.545999999999,92.487,398.451,394.37,0.0
52088.0,STARLINK-3537,PAYLOAD,2022-10-25 19:58:50,15.56485245,9.21e-05,53.201,121.6805,92.103,268.0088,-0.0039610999999999,-0.00276384,0.0,0 STARLINK-3537,1 52088U 22029A   22298.83253099 -.00276384  00000-0 -39611-2 0  9994,2 52088  53.2010 121.6805 0000921  92.1030 268.0088 15.56485245 36136,6775.976,92.516,398.465,397.217,0.0
52088.0,STARLINK-3537,PAYLOAD,2022-10-26 11:24:32,15.5547422,5.739999999999999e-05,53.199,118.5903,247.1062,112.989,-0.0041722,-0.00280232,0.0,0 STARLINK-3537,1 52088U 22029A   22299.47537961 -.00280232  00000-0 -41722-2 0  9991,2 52088  53.1990 118.5903 0000574 247.1062 112.9890 15.55474220 36236,6778.911,92.576,401.166,400.387,0.0
52088.0,STARLINK-3537,PAYLOAD,2022-10-26 20:40:24,15.54792812,0.0001216,53.1998,116.7388,131.4609,228.6507,-0.0044881,-0.00293482,0.0,0 STARLINK-3537,1 52088U 22029A   22299.86139511 -.00293482  00000-0 -44881-2 0  9993,2 52088  53.1998 116.7388 0001216 131.4609 228.6507 15.54792812 36292,6780.892,92.617,403.582,401.932,0.0
52088.0,STARLINK-3537,PAYLOAD,2022-10-26 22:13:09,15.54617337,0.0001859,53.1997,116.43,121.0093,239.1101,-0.0047546,-0.00308345,0.0,0 STARLINK-3537,1 52088U 22029A   22299.92580413 -.00308345  00000-0 -47546-2 0  9997,2 52088  53.1997 116.4300 0001859 121.0093 239.1101 15.54617337 36304,6781.401999999999,92.627,404.528,402.007,0.0
52088.0,STARLINK-3537,PAYLOAD,2022-10-27 12:07:40,15.53345715,0.0002008999999999,53.2002,113.6601,96.8336,263.2904,-0.0044951,-0.00279326,0.0,0 STARLINK-3537,1 52088U 22029A   22300.50532758 -.00279326  00000-0 -44951-2 0  9996,2 52088  53.2002 113.6601 0002009  96.8336 263.2904 15.53345715 36397,6785.103,92.703,408.331,405.605,0.0
52088.0,STARLINK-3537,PAYLOAD,2022-10-27 13:40:25,15.53239723,0.0002173,53.2,113.3558,81.5047,278.6211,-0.0046555,-0.00287867,0.0,0 STARLINK-3537,1 52088U 22029A   22300.56974116 -.00287867  00000-0 -46555-2 0  9991,2 52088  53.2000 113.3558 0002173  81.5047 278.6211 15.53239723 36409,6785.411,92.709,408.751,405.802,0.0
52088.0,STARLINK-3537,PAYLOAD,2022-10-27 19:51:42,15.52632237,0.0002603,53.1995,112.123,84.2085,275.9223,-0.0056725,-0.00340787,0.0,0 STARLINK-3537,1 52088U 22029A   22300.82757552 -.00340787  00000-0 -56725-2 0  9994,2 52088  53.1995 112.1230 0002603  84.2085 275.9223 15.52632237 36448,6787.181,92.746,410.81300000000016,407.279,0.0
52088.0,STARLINK-3537,PAYLOAD,2022-10-28 02:02:38,15.52298792,0.0002073999999999,53.1998,110.8878,48.4369,311.6819,-0.0046166,-0.00276304,0.0,0 STARLINK-3537,1 52088U 22029A   22301.08517187 -.00276304  00000-0 -46166-2 0  9992,2 52088  53.1998 110.8878 0002074  48.4369 311.6819 15.52298792 36480,6788.153,92.766,411.426,408.61,0.0
52088.0,STARLINK-3537,PAYLOAD,2022-10-28 09:46:52,15.51581621,8.14e-05,53.2003,109.3471,105.4003,254.7098,-0.0044542,-0.0026029,0.0,0 STARLINK-3537,1 52088U 22029A   22301.40755021 -.00260290  00000-0 -44542-2 0  9992,2 52088  53.2003 109.3471 0000814 105.4003 254.7098 15.51581621 36536,6790.245,92.809,412.662,411.557,0.0
52088.0,STARLINK-3537,PAYLOAD,2022-10-28 17:31:18,15.50880996,0.0002061,53.2001,107.8065,55.1534,304.967,-0.0047858999999999,-0.00272355,0.0,0 STARLINK-3537,1 52088U 22029A   22301.73008014 -.00272355  00000-0 -47859-2 0  9990,2 52088  53.2001 107.8065 0002061  55.1534 304.9670 15.50880996 36587,6792.29,92.85,415.554,412.755,0.0
52088.0,STARLINK-3537,PAYLOAD,2022-10-29 01:15:35,15.50546762,0.0001035,53.2003,106.2654,66.111,294.0008,-0.0048054,-0.00270256,0.0,0 STARLINK-3537,1 52088U 22029A   22302.05248898 -.00270256  00000-0 -48054-2 0  9998,2 52088  53.2003 106.2654 0001035  66.1110 294.0008 15.50546762 36638,6793.266,92.87,415.834,414.42800000000005,0.0
